{
    "links": {
        "self": "http://www.neowsapp.com/rest/v1/neo/3713288?api_key=iIulBulltgU6a56xZRHN4H3l9WmuAYTsLGpBGhQ2"
    },
    "id": "3713288",
    "neo_reference_id": "3713288",
    "name": "(2015 FE)",
    "designation": "2015 FE",
    "nasa_jpl_url": "http://ssd.jpl.nasa.gov/sbdb.cgi?sstr=3713288",
    "absolute_magnitude_h": 24.4,
    "estimated_diameter": {
        "kilometers": {
            "estimated_diameter_min": 0.0350392641,
            "estimated_diameter_max": 0.0783501764
        },
        "meters": {
            "estimated_diameter_min": 35.0392641108,
            "estimated_diameter_max": 78.3501764334
        },
        "miles": {
            "estimated_diameter_min": 0.0217723826,
            "estimated_diameter_max": 0.0486845275
        },
        "feet": {
            "estimated_diameter_min": 114.9582192654,
            "estimated_diameter_max": 257.0543928497
        }
    },
    "is_potentially_hazardous_asteroid": false,
    "close_approach_data": [
        {
            "close_approach_date": "2015-03-19",
            "close_approach_date_full": "2015-Mar-19 16:44",
            "epoch_date_close_approach": 1426783440000,
            "relative_velocity": {
                "kilometers_per_second": "8.7859743454",
                "kilometers_per_hour": "31629.5076433757",
                "miles_per_hour": "19653.3460131853"
            },
            "miss_distance": {
                "astronomical": "0.0803249666",
                "lunar": "31.2464120074",
                "kilometers": "12016443.911181142",
                "miles": "7466672.0122260796"
            },
            "orbiting_body": "Earth"
        }
    ],
    "orbital_data": {
        "orbit_id": "5",
        "orbit_determination_date": "2017-04-06 08:35:05",
        "first_observation_date": "2015-03-16",
        "last_observation_date": "2015-03-21",
        "data_arc_in_days": 5,
        "observations_used": 56,
        "orbit_uncertainty": "8",
        "minimum_orbit_intersection": ".0791504",
        "jupiter_tisserand_invariant": "3.403",
        "epoch_osculation": "2457100.5",
        "eccentricity": ".5241134593373603",
        "semi_major_axis": "2.258178188522955",
        "inclination": "11.80856015958572",
        "ascending_node_longitude": "357.6892821282322",
        "orbital_period": "1239.469199995764",
        "perihelion_distance": "1.074636606336015",
        "perihelion_argument": "183.3159027516039",
        "aphelion_distance": "3.441719770709895",
        "perihelion_time": "2457102.808262122589",
        "mean_anomaly": "359.3295723974949",
        "mean_motion": ".2904469106624273",
        "equinox": "J2000",
        "orbit_class": {
            "orbit_class_type": "AMO",
            "orbit_class_description": "Near-Earth asteroid orbits similar to that of 1221 Amor",
            "orbit_class_range": "1.017 AU < q (perihelion) < 1.3 AU"
        }
    },
    "is_sentry_object": false
}